[{"OBJECT_NAME":"STARLINK-32078","OBJECT_ID":"2024-136K","EPOCH":"2026-03-09T10:15:24.912288","MEAN_MOTION":15.30183824,"ECCENTRICITY":0.0001397,"INCLINATION":53.161,"RA_OF_ASC_NODE":76.9367,"ARG_OF_PERICENTER":99.4647,"MEAN_ANOMALY":260.6512,"EPHEMERIS_TYPE":0,"CLASSIFICATION_TYPE":"U","NORAD_CAT_ID":60338,"ELEMENT_SET_NO":999,"REV_AT_EPOCH":8962,"BSTAR":0.00012623976,"MEAN_MOTION_DOT":3.38e-5,"MEAN_MOTION_DDOT":0},{"OBJECT_NAME":"CZ-2C DEB","OBJECT_ID":"2018-056F","EPOCH":"2026-03-09T10:57:26.102304","MEAN_MOTION":15.27739248,"ECCENTRICITY":0.00119172,"INCLINATION":98.1188,"RA_OF_ASC_NODE":250.032,"ARG_OF_PERICENTER":4.6998,"MEAN_ANOMALY":355.4349,"EPHEMERIS_TYPE":0,"CLASSIFICATION_TYPE":"U","NORAD_CAT_ID":43534,"ELEMENT_SET_NO":999,"REV_AT_EPOCH":41855,"BSTAR":0.00085537155,"MEAN_MOTION_DOT":0.00023193,"MEAN_MOTION_DDOT":0}]
